OBJECT_NAME,OBJECT_ID,EPOCH,MEAN_MOTION,ECCENTRICITY,INCLINATION,RA_OF_ASC_NODE,ARG_OF_PERICENTER,MEAN_ANOMALY,EPHEMERIS_TYPE,CLASSIFICATION_TYPE,NORAD_CAT_ID,ELEMENT_SET_NO,REV_AT_EPOCH,BSTAR,MEAN_MOTION_DOT,MEAN_MOTION_DDOT
ONEWEB-0309,2021-075W,2026-07-11T22:05:01.275360,13.17650307,.0002363,87.9141,0.9426,93.0786,267.0616,0,U,49095,999,23683,-.61052E-5,.11E-6,0
ONEWEB-0310,2021-075X,2026-07-11T20:38:42.933696,13.12444185,.0001786,87.8952,345.7728,96.5145,263.6187,0,U,49096,999,23842,.46883656E-3,.181E-5,0
ONEWEB-0311,2021-075Y,2026-07-11T20:25:23.561760,13.17648362,.00018791,87.9153,0.9572,75.7567,284.3773,0,U,49097,999,23687,.41306995E-4,.29E-6,0
ONEWEB-0312,2021-075Z,2026-07-11T20:47:16.330272,13.17648395,.00020567,87.9140,0.9633,85.0142,275.1224,0,U,49098,999,23685,.36709605E-4,.27E-6,0
ONEWEB-0313,2021-075AA,2026-07-11T20:54:21.255840,13.17650125,.0001774,87.9129,0.9656,86.0858,274.0476,0,U,49099,999,23684,.20908E-3,.94E-6,0
ONEWEB-0314,2021-075AB,2026-07-11T21:55:18.060672,13.17650845,.000213,87.9149,0.9344,82.8214,277.3160,0,U,49100,999,23682,.18932E-3,.86E-6,0
ONEWEB-0315,2021-075AC,2026-07-11T19:59:40.560576,13.12441727,.00015616,87.8954,345.7433,83.0325,277.0981,0,U,49101,999,23840,-.11922344E-2,-.416E-5,0
ONEWEB-0316,2021-075AD,2026-07-11T19:39:05.133024,13.18668336,.00024195,87.9207,330.5592,107.1739,252.9658,0,U,49102,999,24045,.48682106E-2,.1932E-4,0
ONEWEB-0317,2021-075AE,2026-07-11T20:04:33.328704,13.12442271,.00024273,87.8963,345.7685,109.1575,250.9817,0,U,49103,999,23842,-.11542157E-2,-.402E-5,0
ONEWEB-0318,2021-075AF,2026-07-11T19:34:02.368416,13.18686346,.00018384,87.9191,330.5598,90.7896,269.3447,0,U,49104,999,24041,.33151725E-4,.26E-6,0
ONEWEB-0319,2021-075AG,2026-07-11T20:27:49.062816,13.17648739,.00016337,87.9143,0.9601,78.0717,282.0597,0,U,49105,999,23685,.28514436E-3,.124E-5,0
ONEWEB-0323,2021-075AH,2026-07-11T19:37:43.759776,13.12440849,.00017801,87.8968,345.7524,78.2245,281.9083,0,U,49106,999,23778,-.81858084E-4,-.17E-6,0
ONEWEB-0329,2021-075AJ,2026-07-11T20:39:57.939264,13.17650218,.00019565,87.9143,0.9599,87.8480,272.2876,0,U,49107,999,23683,.77510393E-4,.43E-6,0
ONEWEB-0330,2021-075AK,2026-07-11T20:45:00.280512,13.17646212,.0002058,87.9143,0.9699,88.6110,271.5257,0,U,49108,999,23687,-.13460175E-3,-.39E-6,0
ONEWEB-0292,2021-083A,2026-07-11T20:19:48.982944,13.13470926,.00018555,87.8972,315.3295,95.2017,264.9324,0,U,49186,999,23416,.18938412E-4,.2E-6,0
ONEWEB-0303,2021-083B,2026-07-11T19:29:09.615840,13.18685017,.00018152,87.9177,330.5586,93.1480,266.9860,0,U,49187,999,23322,-.79567499E-3,-.301E-5,0
ONEWEB-0306,2021-083C,2026-07-11T19:14:36.427200,13.18684709,.00020419,87.9198,330.5501,101.8041,258.3320,0,U,49188,999,23326,-.30336016E-4,.1E-7,0
ONEWEB-0307,2021-083D,2026-07-11T20:11:15.968256,13.13472092,.00018509,87.8973,315.3288,96.1041,264.0299,0,U,49189,999,23416,-.4854524E-3,-.165E-5,0
ONEWEB-0320,2021-083E,2026-07-11T19:43:44.015808,13.18687244,.00018687,87.9183,330.5614,99.1304,261.0040,0,U,49190,999,23322,.38992163E-4,.28E-6,0
ONEWEB-0321,2021-083F,2026-07-11T17:54:35.265600,13.20768303,.00022194,87.9189,269.5416,102.0454,258.0929,0,U,49191,999,24007,-.22229602E-3,-.77E-6,0
ONEWEB-0322,2021-083G,2026-07-11T20:05:11.865696,13.13470655,.00019643,87.8976,315.3290,111.5930,248.5408,0,U,49192,999,23415,-.69735432E-3,-.242E-5,0
ONEWEB-0324,2021-083H,2026-07-11T20:54:10.194048,13.18686679,.000209,87.9196,330.5415,94.4286,265.7085,0,U,49193,999,23325,.12153E-3,.61E-6,0
ONEWEB-0325,2021-083J,2026-07-11T19:09:45.181440,13.18687015,.00018296,87.9185,330.5620,97.4542,262.6799,0,U,49194,999,23325,.40157217E-4,.29E-6,0
ONEWEB-0326,2021-083K,2026-07-11T19:31:49.617408,13.18685996,.00017096,87.9201,330.5594,91.7049,268.4279,0,U,49195,999,23324,.64055201E-4,.38E-6,0
ONEWEB-0327,2021-083L,2026-07-11T19:31:25.379616,13.18686168,.00014985,87.9187,330.5611,90.8323,269.2981,0,U,49196,999,23326,.9370284E-5,.17E-6,0
ONEWEB-0328,2021-083M,2026-07-11T19:50:34.067616,13.13469908,.00020954,87.8988,315.3065,97.0499,263.0869,0,U,49197,999,23413,-.70644721E-3,-.245E-5,0
ONEWEB-0331,2021-083N,2026-07-11T19:21:53.404704,13.18684240,.00017885,87.9197,330.5540,85.8219,274.3118,0,U,49198,999,23325,.1880718E-4,.2E-6,0
ONEWEB-0333,2021-083P,2026-07-11T23:22:38.777952,13.13469247,.0001871,87.8976,315.3017,100.0833,260.0507,0,U,49199,999,23416,-.57423E-3,-.197E-5,0
ONEWEB-0334,2021-083Q,2026-07-12T03:20:37.102848,13.20768800,.0002322,87.9194,269.4719,119.0450,241.0917,0,U,49200,999,24008,-.52647E-4,-.8E-7,0
ONEWEB-0335,2021-083R,2026-07-11T19:35:55.858272,13.13465009,.0001777,87.8980,315.3294,96.9633,263.1698,0,U,49201,999,23415,-.37242838E-3,-.123E-5,0
