ONEWEB-0309             
1 49095U 21075W   26192.92015365  .00000011  00000+0 -61052-5 0  9994
2 49095  87.9141   0.9426 0002363  93.0786 267.0616 13.17650307236830
ONEWEB-0310             
1 49096U 21075X   26192.86021914  .00000181  00000+0  46884-3 0  9996
2 49096  87.8952 345.7728 0001786  96.5145 263.6187 13.12444185238422
ONEWEB-0311             
1 49097U 21075Y   26192.85096715  .00000029  00000+0  41307-4 0  9994
2 49097  87.9153   0.9572 0001879  75.7567 284.3773 13.17648362236870
ONEWEB-0312             
1 49098U 21075Z   26192.86616123  .00000027  00000+0  36710-4 0  9997
2 49098  87.9140   0.9633 0002056  85.0142 275.1224 13.17648395236859
ONEWEB-0313             
1 49099U 21075AA  26192.87107935  .00000094  00000+0  20908-3 0  9990
2 49099  87.9129   0.9656 0001774  86.0858 274.0476 13.17650125236843
ONEWEB-0314             
1 49100U 21075AB  26192.91340348  .00000086  00000+0  18932-3 0  9990
2 49100  87.9149   0.9344 0002130  82.8214 277.3160 13.17650845236822
ONEWEB-0315             
1 49101U 21075AC  26192.83310834 -.00000416  00000+0 -11922-2 0  9999
2 49101  87.8954 345.7433 0001561  83.0325 277.0981 13.12441727238404
ONEWEB-0316             
1 49102U 21075AD  26192.81880941  .00001932  00000+0  48682-2 0  9994
2 49102  87.9207 330.5592 0002419 107.1739 252.9658 13.18668336240459
ONEWEB-0317             
1 49103U 21075AE  26192.83649686 -.00000402  00000+0 -11542-2 0  9994
2 49103  87.8963 345.7685 0002427 109.1575 250.9817 13.12442271238429
ONEWEB-0318             
1 49104U 21075AF  26192.81530519  .00000026  00000+0  33152-4 0  9990
2 49104  87.9191 330.5598 0001838  90.7896 269.3447 13.18686346240419
ONEWEB-0319             
1 49105U 21075AG  26192.85265119  .00000124  00000+0  28514-3 0  9990
2 49105  87.9143   0.9601 0001633  78.0717 282.0597 13.17648739236858
ONEWEB-0323             
1 49106U 21075AH  26192.81786759 -.00000017  00000+0 -81858-4 0  9999
2 49106  87.8968 345.7524 0001780  78.2245 281.9083 13.12440849237786
ONEWEB-0329             
1 49107U 21075AJ  26192.86108726  .00000043  00000+0  77510-4 0  9994
2 49107  87.9143   0.9599 0001956  87.8480 272.2876 13.17650218236833
ONEWEB-0330             
1 49108U 21075AK  26192.86458658 -.00000039  00000+0 -13460-3 0  9997
2 49108  87.9143   0.9699 0002058  88.6110 271.5257 13.17646212236876
ONEWEB-0292             
1 49186U 21083A   26192.84709471  .00000020  00000+0  18938-4 0  9996
2 49186  87.8972 315.3295 0001855  95.2017 264.9324 13.13470926234164
ONEWEB-0303             
1 49187U 21083B   26192.81191685 -.00000301  00000+0 -79567-3 0  9994
2 49187  87.9177 330.5586 0001815  93.1480 266.9860 13.18685017233229
ONEWEB-0306             
1 49188U 21083C   26192.80181050  .00000001  00000+0 -30336-4 0  9997
2 49188  87.9198 330.5501 0002041 101.8041 258.3320 13.18684709233269
ONEWEB-0307             
1 49189U 21083D   26192.84115704 -.00000165  00000+0 -48545-3 0  9997
2 49189  87.8973 315.3288 0001850  96.1041 264.0299 13.13472092234160
ONEWEB-0320             
1 49190U 21083E   26192.82203722  .00000028  00000+0  38992-4 0  9997
2 49190  87.9183 330.5614 0001868  99.1304 261.0040 13.18687244233221
ONEWEB-0321             
1 49191U 21083F   26192.74624150 -.00000077  00000+0 -22230-3 0  9994
2 49191  87.9189 269.5416 0002219 102.0454 258.0929 13.20768303240072
ONEWEB-0322             
1 49192U 21083G   26192.83694289 -.00000242  00000+0 -69735-3 0  9990
2 49192  87.8976 315.3290 0001964 111.5930 248.5408 13.13470655234156
ONEWEB-0324             
1 49193U 21083H   26192.87095132  .00000061  00000+0  12153-3 0  9996
2 49193  87.9196 330.5415 0002090  94.4286 265.7085 13.18686679233256
ONEWEB-0325             
1 49194U 21083J   26192.79843960  .00000029  00000+0  40157-4 0  9998
2 49194  87.9185 330.5620 0001829  97.4542 262.6799 13.18687015233253
ONEWEB-0326             
1 49195U 21083K   26192.81376872  .00000038  00000+0  64055-4 0  9998
2 49195  87.9201 330.5594 0001709  91.7049 268.4279 13.18685996233241
ONEWEB-0327             
1 49196U 21083L   26192.81348819  .00000017  00000+0  93703-5 0  9999
2 49196  87.9187 330.5611 0001498  90.8323 269.2981 13.18686168233268
ONEWEB-0328             
1 49197U 21083M   26192.82678319 -.00000245  00000+0 -70645-3 0  9995
2 49197  87.8988 315.3065 0002095  97.0499 263.0869 13.13469908234138
ONEWEB-0331             
1 49198U 21083N   26192.80686811  .00000020  00000+0  18807-4 0  9992
2 49198  87.9197 330.5540 0001788  85.8219 274.3118 13.18684240233259
ONEWEB-0333             
1 49199U 21083P   26192.97405993 -.00000197  00000+0 -57423-3 0  9994
2 49199  87.8976 315.3017 0001871 100.0833 260.0507 13.13469247234167
ONEWEB-0334             
1 49200U 21083Q   26193.13931832 -.00000008  00000+0 -52647-4 0  9997
2 49200  87.9194 269.4719 0002322 119.0450 241.0917 13.20768800240085
ONEWEB-0335             
1 49201U 21083R   26192.81661873 -.00000123  00000+0 -37243-3 0  9999
2 49201  87.8980 315.3294 0001777  96.9633 263.1698 13.13465009234155
